[{"OBJECT_NAME":"PERSEUS-M1","OBJECT_ID":"2014-033AF","EPOCH":"2026-03-09T17:46:59.181600","MEAN_MOTION":14.95254642,"ECCENTRICITY":0.00100578,"INCLINATION":97.9555,"RA_OF_ASC_NODE":11.3245,"ARG_OF_PERICENTER":268.322,"MEAN_ANOMALY":91.6848,"EPHEMERIS_TYPE":0,"CLASSIFICATION_TYPE":"U","NORAD_CAT_ID":40039,"ELEMENT_SET_NO":999,"REV_AT_EPOCH":63577,"BSTAR":0.00021947731,"MEAN_MOTION_DOT":2.357e-5,"MEAN_MOTION_DDOT":0},{"OBJECT_NAME":"IRIDE-MS2-HEO-6","OBJECT_ID":"2025-135BA","EPOCH":"2026-03-09T21:52:31.046880","MEAN_MOTION":14.93647104,"ECCENTRICITY":0.00022697,"INCLINATION":97.7585,"RA_OF_ASC_NODE":184.4002,"ARG_OF_PERICENTER":299.868,"MEAN_ANOMALY":60.2314,"EPHEMERIS_TYPE":0,"CLASSIFICATION_TYPE":"U","NORAD_CAT_ID":64576,"ELEMENT_SET_NO":999,"REV_AT_EPOCH":3907,"BSTAR":0.00032394524,"MEAN_MOTION_DOT":3.366e-5,"MEAN_MOTION_DDOT":0}]
